[{"OBJECT_NAME":"STARLINK-33979","OBJECT_ID":"2025-094D","EPOCH":"2026-03-09T21:38:06.091296","MEAN_MOTION":14.96695037,"ECCENTRICITY":0.00064257,"INCLINATION":70.0023,"RA_OF_ASC_NODE":233.9743,"ARG_OF_PERICENTER":205.8045,"MEAN_ANOMALY":154.2794,"EPHEMERIS_TYPE":0,"CLASSIFICATION_TYPE":"U","NORAD_CAT_ID":63867,"ELEMENT_SET_NO":999,"REV_AT_EPOCH":4723,"BSTAR":-0.06422202,"MEAN_MOTION_DOT":-0.00685414,"MEAN_MOTION_DDOT":0},{"OBJECT_NAME":"CZ-6A DEB","OBJECT_ID":"2024-140DW","EPOCH":"2026-03-09T12:42:27.831456","MEAN_MOTION":14.74987574,"ECCENTRICITY":0.01550337,"INCLINATION":88.9082,"RA_OF_ASC_NODE":275.4322,"ARG_OF_PERICENTER":135.579,"MEAN_ANOMALY":225.799,"EPHEMERIS_TYPE":0,"CLASSIFICATION_TYPE":"U","NORAD_CAT_ID":60717,"ELEMENT_SET_NO":999,"REV_AT_EPOCH":8391,"BSTAR":0.0030954876,"MEAN_MOTION_DOT":0.00025382,"MEAN_MOTION_DDOT":0}]
